{
  "type": "FeatureCollection",
  "features": [
    {
      "type": "Feature",
      "properties": {
        "name": "Paris - Limites détaillées",
        "description": "Limites administratives de Paris (Île-de-France)",
        "city": "Paris",
        "country": "France",
        "region": "Île-de-France"
      },
      "geometry": {
        "type": "Polygon",
        "coordinates": [
          [
            [2.224, 48.816],
            [2.234, 48.815],
            [2.254, 48.812],
            [2.270, 48.809],
            [2.288, 48.810],
            [2.305, 48.813],
            [2.320, 48.820],
            [2.330, 48.827],
            [2.340, 48.832],
            [2.350, 48.835],
            [2.365, 48.837],
            [2.380, 48.837],
            [2.395, 48.835],
            [2.410, 48.832],
            [2.425, 48.828],
            [2.440, 48.823],
            [2.455, 48.818],
            [2.468, 48.815],
            [2.469, 48.820],
            [2.468, 48.835],
            [2.465, 48.850],
            [2.460, 48.865],
            [2.455, 48.875],
            [2.448, 48.885],
            [2.440, 48.892],
            [2.430, 48.898],
            [2.420, 48.902],
            [2.405, 48.903],
            [2.390, 48.902],
            [2.375, 48.900],
            [2.360, 48.898],
            [2.345, 48.897],
            [2.330, 48.898],
            [2.315, 48.900],
            [2.300, 48.901],
            [2.285, 48.900],
            [2.270, 48.898],
            [2.255, 48.895],
            [2.240, 48.890],
            [2.230, 48.883],
            [2.225, 48.875],
            [2.222, 48.860],
            [2.220, 48.845],
            [2.221, 48.830],
            [2.223, 48.816],
            [2.224, 48.816]
          ]
        ]
      }
    }
  ]
}
